{"type": "FeatureCollection", "features": [{"type": "Feature", "geometry": {"type": "Point", "coordinates": [-77.02394325, 38.9177638]}, "properties": {"OBJECTID": 12470641, "SERVICEREQUESTID": "26-00123890", "SERVICECODEDESCRIPTION": "Snow and Ice Removal on Public Space", "SERVICEORDERSTATUS": "Closed", "STREETADDRESS": "V STREET NW AND 9TH STREET NW", "WARD": "1", "ANC_ID": "1B", "CLUSTER": "Howard University, Le Droit Park, Cardozo/Shaw", "PLANNING_AREA": "Northern", "TRACT": "44.01", "closed": true, "add_ms": 1771944091000, "res_ms": 1772473544000, "ttc_hours": 147.0702777777778, "open_age_hours": null}}, {"type": "Feature", "geometry": {"type": "Point", "coordinates": [-76.98110744, 38.94323532]}, "properties": {"OBJECTID": 12470959, "SERVICEREQUESTID": "26-00124528", "SERVICECODEDESCRIPTION": "Snow and Ice Removal on Public Space", "SERVICEORDERSTATUS": "Closed", "STREETADDRESS": "1663 VARNUM PLACE NE", "WARD": "5", "ANC_ID": "5B", "CLUSTER": "North Michigan Park, Michigan Park, University Heights", "PLANNING_AREA": "Northern", "TRACT": "95.03", "closed": true, "add_ms": 1771953793000, "res_ms": 1772471502000, "ttc_hours": 143.80805555555557, "open_age_hours": null}}, {"type": "Feature", "geometry": {"type": "Point", "coordinates": [-76.93465919, 38.8904857]}, "properties": {"OBJECTID": 12481410, "SERVICEREQUESTID": "26-00139095", "SERVICECODEDESCRIPTION": "Snow and Ice Removal on Public Space", "SERVICEORDERSTATUS": "Open", "STREETADDRESS": "4700 CENTRAL AVENUE NE", "WARD": "7", "ANC_ID": "7F", "CLUSTER": "Capitol View, Marshall Heights, Benning Heights", "PLANNING_AREA": "Eastern", "TRACT": "78.04", "closed": false, "add_ms": 1772557599000, "res_ms": null, "ttc_hours": null, "open_age_hours": 553.5574934538889}}]}